{
  "type": "FeatureCollection",
  "features": [
    {
      "type": "Feature",
      "properties": {
        "norad_id": 36036,
        "name": "SMOS",
        "group": "resource",
        "lat": -57.89715283178119,
        "lon": -9.126947924508604,
        "alt_km": 767.0888394429858,
        "timestamp": "2025-12-25T16:53:14.310674+00:00",
        "meta_object_name": "SMOS",
        "meta_object_id": "2009-059A",
        "meta_epoch": "2025-12-25T02:26:16.778112",
        "meta_mean_motion": 14.3975208,
        "meta_eccentricity": 0.00010518,
        "meta_inclination": 98.4382,
        "meta_ra_of_asc_node": 183.967,
        "meta_arg_of_pericenter": 83.1567,
        "meta_mean_anomaly": 276.9741,
        "meta_ephemeris_type": 0,
        "meta_classification_type": "U",
        "meta_norad_cat_id": 36036,
        "meta_element_set_no": 999,
        "meta_rev_at_epoch": 84840,
        "meta_bstar": 0.00014263233,
        "meta_mean_motion_dot": 4.03e-06,
        "meta_mean_motion_ddot": 0,
        "tle_line1": "1 36036U 09059A   25359.10158308  .00000403  00000+0  14263-3 0  9996",
        "tle_line2": "2 36036  98.4382 183.9670 0001051  83.1567 276.9741 14.39752080848404"
      },
      "geometry": {
        "type": "Point",
        "coordinates": [
          -9.126947924508604,
          -57.89715283178119
        ]
      }
    },
    {
      "type": "Feature",
      "properties": {
        "norad_id": 36110,
        "name": "YAOGAN-7",
        "group": "resource",
        "lat": 33.74423323153678,
        "lon": -123.99710793410057,
        "alt_km": 649.4752671463148,
        "timestamp": "2025-12-25T16:53:14.310685+00:00",
        "meta_object_name": "YAOGAN-7",
        "meta_object_id": "2009-069A",
        "meta_epoch": "2025-12-25T06:58:56.573184",
        "meta_mean_motion": 14.77750189,
        "meta_eccentricity": 0.00234624,
        "meta_inclination": 98.0293,
        "meta_ra_of_asc_node": 241.0027,
        "meta_arg_of_pericenter": 238.5116,
        "meta_mean_anomaly": 121.3802,
        "meta_ephemeris_type": 0,
        "meta_classification_type": "U",
        "meta_norad_cat_id": 36110,
        "meta_element_set_no": 999,
        "meta_rev_at_epoch": 86394,
        "meta_bstar": 9.9600039e-05,
        "meta_mean_motion_dot": 6.64e-06,
        "meta_mean_motion_ddot": 0,
        "tle_line1": "1 36110U 09069A   25359.29093256  .00000664  00000+0  99600-4 0  9998",
        "tle_line2": "2 36110  98.0293 241.0027 0023462 238.5116 121.3802 14.77750189863949"
      },
      "geometry": {
        "type": "Point",
        "coordinates": [
          -123.99710793410057,
          33.74423323153678
        ]
      }
    },
    {
      "type": "Feature",
      "properties": {
        "norad_id": 36605,
        "name": "TANDEM-X",
        "group": "resource",
        "lat": 48.332047437513225,
        "lon": -3.5553689172860055,
        "alt_km": 503.20286861174736,
        "timestamp": "2025-12-25T16:53:14.310695+00:00",
        "meta_object_name": "TANDEM-X",
        "meta_object_id": "2010-030A",
        "meta_epoch": "2025-12-24T13:47:55.228992",
        "meta_mean_motion": 15.19151393,
        "meta_eccentricity": 0.00017737,
        "meta_inclination": 97.4454,
        "meta_ra_of_asc_node": 3.7821,
        "meta_arg_of_pericenter": 94.5594,
        "meta_mean_anomaly": 265.5843,
        "meta_ephemeris_type": 0,
        "meta_classification_type": "U",
        "meta_norad_cat_id": 36605,
        "meta_element_set_no": 999,
        "meta_rev_at_epoch": 86013,
        "meta_bstar": 4.5827e-05,
        "meta_mean_motion_dot": 8.95e-06,
        "meta_mean_motion_ddot": 0,
        "tle_line1": "1 36605U 10030A   25358.57494478  .00000895  00000+0  45827-4 0  9996",
        "tle_line2": "2 36605  97.4454   3.7821 0001773  94.5594 265.5843 15.19151393860139"
      },
      "geometry": {
        "type": "Point",
        "coordinates": [
          -3.5553689172860055,
          48.332047437513225
        ]
      }
    },
    {
      "type": "Feature",
      "properties": {
        "norad_id": 36795,
        "name": "CARTOSAT-2B",
        "group": "resource",
        "lat": 7.23795019594997,
        "lon": 47.315800170171244,
        "alt_km": 627.7483453138029,
        "timestamp": "2025-12-25T16:53:14.310705+00:00",
        "meta_object_name": "CARTOSAT-2B",
        "meta_object_id": "2010-035A",
        "meta_epoch": "2025-12-25T07:06:37.799712",
        "meta_mean_motion": 14.78742942,
        "meta_eccentricity": 0.00125583,
        "meta_inclination": 97.7831,
        "meta_ra_of_asc_node": 47.9171,
        "meta_arg_of_pericenter": 39.4538,
        "meta_mean_anomaly": 320.7585,
        "meta_ephemeris_type": 0,
        "meta_classification_type": "U",
        "meta_norad_cat_id": 36795,
        "meta_element_set_no": 999,
        "meta_rev_at_epoch": 83415,
        "meta_bstar": 0.0001324996,
        "meta_mean_motion_dot": 9.24e-06,
        "meta_mean_motion_ddot": 0,
        "tle_line1": "1 36795U 10035A   25359.29627083  .00000924  00000+0  13250-3 0  9998",
        "tle_line2": "2 36795  97.7831  47.9171 0012558  39.4538 320.7585 14.78742942834158"
      },
      "geometry": {
        "type": "Point",
        "coordinates": [
          47.315800170171244,
          7.23795019594997
        ]
      }
    },
    {
      "type": "Feature",
      "properties": {
        "norad_id": 36834,
        "name": "YAOGAN-10",
        "group": "resource",
        "lat": 2.5090654147685316,
        "lon": 19.07748901614961,
        "alt_km": 617.1087256637065,
        "timestamp": "2025-12-25T16:53:14.310715+00:00",
        "meta_object_name": "YAOGAN-10",
        "meta_object_id": "2010-038A",
        "meta_epoch": "2025-12-25T07:45:22.606848",
        "meta_mean_motion": 14.84657289,
        "meta_eccentricity": 0.00014301,
        "meta_inclination": 97.9133,
        "meta_ra_of_asc_node": 19.0491,
        "meta_arg_of_pericenter": 80.0606,
        "meta_mean_anomaly": 50.3835,
        "meta_ephemeris_type": 0,
        "meta_classification_type": "U",
        "meta_norad_cat_id": 36834,
        "meta_element_set_no": 999,
        "meta_rev_at_epoch": 83140,
        "meta_bstar": 0.00036503325,
        "meta_mean_motion_dot": 3.034e-05,
        "meta_mean_motion_ddot": 0,
        "tle_line1": "1 36834U 10038A   25359.32317832  .00003034  00000+0  36503-3 0  9998",
        "tle_line2": "2 36834  97.9133  19.0491 0001430  80.0606  50.3835 14.84657289831404"
      },
      "geometry": {
        "type": "Point",
        "coordinates": [
          19.07748901614961,
          2.5090654147685316
        ]
      }
    },
    {
      "type": "Feature",
      "properties": {
        "norad_id": 37216,
        "name": "COSMO-SKYMED 4",
        "group": "resource",
        "lat": 9.447983831734497,
        "lon": 2.1519268422293893,
        "alt_km": 624.201172312537,
        "timestamp": "2025-12-25T16:53:14.310725+00:00",
        "meta_object_name": "COSMO-SKYMED 4",
        "meta_object_id": "2010-060A",
        "meta_epoch": "2025-12-25T06:23:59.441280",
        "meta_mean_motion": 14.82159279,
        "meta_eccentricity": 0.00013643,
        "meta_inclination": 97.8804,
        "meta_ra_of_asc_node": 180.401,
        "meta_arg_of_pericenter": 83.2998,
        "meta_mean_anomaly": 276.8371,
        "meta_ephemeris_type": 0,
        "meta_classification_type": "U",
        "meta_norad_cat_id": 37216,
        "meta_element_set_no": 999,
        "meta_rev_at_epoch": 81880,
        "meta_bstar": 9.4579145e-05,
        "meta_mean_motion_dot": 7.01e-06,
        "meta_mean_motion_ddot": 0,
        "tle_line1": "1 37216U 10060A   25359.26666020  .00000701  00000+0  94579-4 0  9993",
        "tle_line2": "2 37216  97.8804 180.4010 0001364  83.2998 276.8371 14.82159279818801"
      },
      "geometry": {
        "type": "Point",
        "coordinates": [
          2.1519268422293893,
          9.447983831734497
        ]
      }
    },
    {
      "type": "Feature",
      "properties": {
        "norad_id": 37387,
        "name": "RESOURCESAT-2",
        "group": "resource",
        "lat": -14.024597560920647,
        "lon": -119.01767556158684,
        "alt_km": 828.6378383298988,
        "timestamp": "2025-12-25T16:53:14.310736+00:00",
        "meta_object_name": "RESOURCESAT-2",
        "meta_object_id": "2011-015A",
        "meta_epoch": "2025-12-25T04:09:10.470240",
        "meta_mean_motion": 14.21602011,
        "meta_eccentricity": 0.00058097,
        "meta_inclination": 98.786,
        "meta_ra_of_asc_node": 62.6682,
        "meta_arg_of_pericenter": 8.5404,
        "meta_mean_anomaly": 351.5871,
        "meta_ephemeris_type": 0,
        "meta_classification_type": "U",
        "meta_norad_cat_id": 37387,
        "meta_element_set_no": 999,
        "meta_rev_at_epoch": 76145,
        "meta_bstar": 8.2340696e-05,
        "meta_mean_motion_dot": 1.36e-06,
        "meta_mean_motion_ddot": 0,
        "tle_line1": "1 37387U 11015A   25359.17303785  .00000136  00000+0  82341-4 0  9995",
        "tle_line2": "2 37387  98.7860  62.6682 0005809   8.5404 351.5871 14.21602011761452"
      },
      "geometry": {
        "type": "Point",
        "coordinates": [
          -119.01767556158684,
          -14.024597560920647
        ]
      }
    }
  ]
}